NORAD_CAT_ID,OBJECT_NAME,OBJECT_TYPE,EPOCH,MEAN_MOTION,ECCENTRICITY,INCLINATION,RA_OF_ASC_NODE,ARG_OF_PERICENTER,MEAN_ANOMALY,BSTAR,MEAN_MOTION_DOT,MEAN_MOTION_DDOT,TLE_LINE0,TLE_LINE1,TLE_LINE2,SEMIMAJOR_AXIS,PERIOD,APOGEE,PERIGEE,DECAYED
52535.0,STARLINK-3958,PAYLOAD,2022-07-30 14:00:01,15.08844239,0.0002016,53.2158,286.3398,38.1667,237.4625,0.00020508,2.978e-05,0.0,0 STARLINK-3958,1 52535U 22051C   22211.58334491  .00002978  00000-0  20508-3 0  9999,2 52535  53.2158 286.3398 0002016  38.1667 237.4625 15.08844239  1302,6917.8669999999975,95.437,541.127,538.3380000000002,0.0
52535.0,STARLINK-3958,PAYLOAD,2022-07-30 22:00:00,15.08845541,0.0001865,53.2157,284.8419,37.105,250.1288,-0.0024983,-0.00039836,0.0,0 STARLINK-3958,1 52535U 22051C   22211.91667824 -.00039836  00000-0 -24983-2 0  9990,2 52535  53.2157 284.8419 0001865  37.1050 250.1288 15.08845541  1308,6917.863,95.437,541.019,538.438,0.0
52535.0,STARLINK-3958,PAYLOAD,2022-07-31 14:00:01,15.08813312,0.0002063,53.2157,281.8506,36.2279,274.1792,0.0020096,0.00031817,0.0,0 STARLINK-3958,1 52535U 22051C   22212.58334491  .00031817  00000-0  20096-2 0  9995,2 52535  53.2157 281.8506 0002063  36.2279 274.1792 15.08813312  1303,6917.962,95.439,541.254,538.4,0.0
52535.0,STARLINK-3958,PAYLOAD,2022-07-31 22:00:00,15.08841729,0.0001935,53.2157,280.3527,37.0337,284.953,-0.0011311,-0.00018246,0.0,0 STARLINK-3958,1 52535U 22051C   22212.91667824 -.00018246  00000-0 -11311-2 0  9994,2 52535  53.2157 280.3527 0001935  37.0337 284.9530 15.08841729  1303,6917.875,95.437,541.0790000000002,538.401,0.0
52535.0,STARLINK-3958,PAYLOAD,2022-08-01 14:00:01,15.08822683,0.0002148,53.2158,277.3612,36.4759,308.7033,0.0023462,0.00037232,0.0,0 STARLINK-3958,1 52535U 22051C   22213.58334491  .00037232  00000-0  23462-2 0  9993,2 52535  53.2158 277.3612 0002148  36.4759 308.7033 15.08822683 12823,6917.933000000001,95.439,541.284,538.312,0.0
52535.0,STARLINK-3958,PAYLOAD,2022-08-01 22:00:00,15.08848551,0.0001999,53.2159,275.8632,37.9449,318.8284,-0.00055873,-9.172e-05,0.0,0 STARLINK-3958,1 52535U 22051C   22213.91667824 -.00009172  00000-0 -55873-3 0  9995,2 52535  53.2159 275.8632 0001999  37.9449 318.8284 15.08848551  1307,6917.854,95.437,541.102,538.336,0.0
52535.0,STARLINK-3958,PAYLOAD,2022-08-02 06:00:02,15.08874283,0.000196,53.2161,274.3666,39.369,329.0603,-0.0034928,-0.00055501,0.0,0 STARLINK-3958,1 52535U 22051C   22214.25002315 -.00055501  00000-0 -34928-2 0  9995,2 52535  53.2161 274.3666 0001960  39.3690 329.0603 15.08874283 12923,6917.776,95.435,540.996,538.285,0.0
52535.0,STARLINK-3958,PAYLOAD,2022-08-02 14:00:01,15.08803735,0.000213,53.216,272.8717,34.1502,345.8363,0.0025105,0.00039854,0.0,0 STARLINK-3958,1 52535U 22051C   22214.58334491  .00039854  00000-0  25105-2 0  9992,2 52535  53.2160 272.8717 0002130  34.1502 345.8363 15.08803735 12975,6917.991,95.44,541.33,538.383,0.0
52535.0,STARLINK-3958,PAYLOAD,2022-08-03 06:00:00,15.08846559,0.0001961,53.2163,269.8774,38.2493,4.8823,-0.0012885,-0.0002073999999999,0.0,0 STARLINK-3958,1 52535U 22051C   22215.25001157 -.00020740  00000-0 -12885-2 0  9994,2 52535  53.2163 269.8774 0001961  38.2493   4.8823 15.08846559 13078,6917.86,95.437,541.082,538.369,0.0
52535.0,STARLINK-3958,PAYLOAD,2022-08-03 14:00:01,15.08811532,0.0002148,53.2161,268.3824,34.326,20.4041,0.0026636999999999,0.00042327,0.0,0 STARLINK-3958,1 52535U 22051C   22215.58334491  .00042327  00000-0  26637-2 0  9993,2 52535  53.2161 268.3824 0002148  34.3260  20.4041 15.08811532  1305,6917.967,95.439,541.318,538.346,0.0
52535.0,STARLINK-3958,PAYLOAD,2022-08-03 22:00:01,15.08828233,0.000195,53.2162,266.8842,37.3275,29.0508,0.00054465,8.388e-05,0.0,0 STARLINK-3958,1 52535U 22051C   22215.91668981  .00008388  00000-0  54465-3 0  9994,2 52535  53.2162 266.8842 0001950  37.3275  29.0508 15.08828233  1307,6917.916,95.438,541.13,538.432,0.0
52535.0,STARLINK-3958,PAYLOAD,2022-08-04 06:00:00,15.08855626,0.0001981,53.2162,265.3882,38.8877,39.007,-0.0016789,-0.0002692,0.0,0 STARLINK-3958,1 52535U 22051C   22216.25001157 -.00026920  00000-0 -16789-2 0  9998,2 52535  53.2162 265.3882 0001981  38.8877  39.0070 15.08855626 13228,6917.833000000001,95.437,541.068,538.327,0.0
52535.0,STARLINK-3958,PAYLOAD,2022-08-04 14:00:01,15.08818299,0.0002153,53.2159,263.8931,34.8404,54.6619,0.0027146,0.00043155,0.0,0 STARLINK-3958,1 52535U 22051C   22216.58334491  .00043155  00000-0  27146-2 0  9990,2 52535  53.2159 263.8931 0002153  34.8404  54.6619 15.08818299  1309,6917.946999999999,95.439,541.3009999999998,538.322,0.0
52535.0,STARLINK-3958,PAYLOAD,2022-08-04 22:00:00,15.08829777,0.0001950999999999,53.216,262.3949,38.4318,62.6641,0.0010137,0.00015877,0.0,0 STARLINK-3958,1 52535U 22051C   22216.91667824  .00015877  00000-0  10137-2 0  9998,2 52535  53.2160 262.3949 0001951  38.4318  62.6641 15.08829777 13325,6917.9119999999975,95.438,541.126,538.427,0.0
52535.0,STARLINK-3958,PAYLOAD,2022-08-05 14:00:01,15.08824432,0.0002176,53.2156,259.4038,35.9193,88.4383,0.0026331999999999,0.00041851,0.0,0 STARLINK-3958,1 52535U 22051C   22217.58335648  .00041851  00000-0  26332-2 0  9993,2 52535  53.2156 259.4038 0002176  35.9193  88.4383 15.08824432  1306,6917.928000000001,95.439,541.298,538.288,0.0
52535.0,STARLINK-3958,PAYLOAD,2022-08-05 22:00:00,15.0883304,0.0001986,53.2155,257.9058,39.7406,96.1568,0.0014916999999999,0.00023528,0.0,0 STARLINK-3958,1 52535U 22051C   22217.91667824  .00023528  00000-0  14917-2 0  9991,2 52535  53.2155 257.9058 0001986  39.7406  96.1568 15.08833040  1303,6917.901999999999,95.438,541.141,538.393,0.0
52535.0,STARLINK-3958,PAYLOAD,2022-08-06 00:00:02,15.08827818,0.0001986999999999,53.2154,257.5313,41.0591,187.8026,0.0025001999999999,0.00039714,0.0,0 STARLINK-3958,1 52535U 22051C   22218.00002315  .00039714  00000-0  25002-2 0  9991,2 52535  53.2154 257.5313 0001987  41.0591 187.8026 15.08827818 13490,6917.918000000002,95.438,541.1569999999998,538.408,0.0
52535.0,STARLINK-3958,PAYLOAD,2022-08-06 14:00:01,15.08828782,0.0002189,53.2152,254.9147,35.2521,123.8555,0.00031242,4.686e-05,0.0,0 STARLINK-3958,1 52535U 22051C   22218.58334491  .00004686  00000-0  31242-3 0  9991,2 52535  53.2152 254.9147 0002189  35.2521 123.8555 15.08828782  1302,6917.915,95.438,541.294,538.265,0.0
52535.0,STARLINK-3958,PAYLOAD,2022-08-06 19:39:26,15.08842572,0.0002217,53.2165,253.855,39.3146,320.8007,5.2407e-05,5.46e-06,0.0,0 STARLINK-3958,1 52535U 22051C   22218.81905482  .00000546  00000-0  52407-4 0  9999,2 52535  53.2165 253.8550 0002217  39.3146 320.8007 15.08842572 13545,6917.873000000001,95.437,541.271,538.2040000000002,0.0
52535.0,STARLINK-3958,PAYLOAD,2022-08-07 11:33:18,15.08836484,0.0002157,53.2164,250.8811,40.83,319.2853,-3.2841999999999995e-05,-8.11e-06,0.0,0 STARLINK-3958,1 52535U 22051C   22219.48146194 -.00000811  00000-0 -32842-4 0  9998,2 52535  53.2164 250.8811 0002157  40.8300 319.2853 15.08836484 13718,6917.891,95.438,541.248,538.264,0.0
52535.0,STARLINK-3958,PAYLOAD,2022-08-07 19:30:13,15.08839592,0.0002151999999999,53.2165,249.3943,42.2447,317.871,-2.0029e-05,-6.07e-06,0.0,0 STARLINK-3958,1 52535U 22051C   22219.81265990 -.00000607  00000-0 -20029-4 0  9998,2 52535  53.2165 249.3943 0002152  42.2447 317.8710 15.08839592 13697,6917.882,95.438,541.235,538.258,0.0
52535.0,STARLINK-3958,PAYLOAD,2022-08-08 14:00:01,15.08835031,0.0002365,53.215,245.9364,36.5226,192.1603,0.0016555999999999,0.00026156,0.0,0 STARLINK-3958,1 52535U 22051C   22220.58335648  .00026156  00000-0  16556-2 0  9995,2 52535  53.2150 245.9364 0002365  36.5226 192.1603 15.08835031  1301,6917.896,95.438,541.3969999999998,538.124,0.0
52535.0,STARLINK-3958,PAYLOAD,2022-08-08 22:00:00,15.08831481,0.0002185,53.2152,244.4382,39.9547,200.2747,0.0022574,0.00035814,0.0,0 STARLINK-3958,1 52535U 22051C   22220.91667824  .00035814  00000-0  22574-2 0  9994,2 52535  53.2152 244.4382 0002185  39.9547 200.2747 15.08831481  1305,6917.906,95.438,541.283,538.26,0.0
52535.0,STARLINK-3958,PAYLOAD,2022-08-09 06:00:00,15.0886018,0.0002287,53.2152,242.9429,38.9175,212.9119,-0.0033022,-0.00052491,0.0,0 STARLINK-3958,1 52535U 22051C   22221.25001157 -.00052491  00000-0 -33022-2 0  9995,2 52535  53.2152 242.9429 0002287  38.9175 212.9119 15.08860180 13987,6917.819,95.436,541.266,538.102,0.0
52535.0,STARLINK-3958,PAYLOAD,2022-08-09 14:00:01,15.08826136,0.0002381999999999,53.2149,241.4472,35.481,227.9406,0.00075118,0.00011683,0.0,0 STARLINK-3958,1 52535U 22051C   22221.58334491  .00011683  00000-0  75118-3 0  9990,2 52535  53.2149 241.4472 0002382  35.4810 227.9406 15.08826136  1300,6917.9230000000025,95.438,541.436,538.14,0.0
52535.0,STARLINK-3958,PAYLOAD,2022-08-09 22:00:00,15.0881033,0.0002207,53.2151,239.949,39.6842,235.3311,0.0028347,0.00045079,0.0,0 STARLINK-3958,1 52535U 22051C   22221.91667824  .00045079  00000-0  28347-2 0  9993,2 52535  53.2151 239.9490 0002207  39.6842 235.3311 15.08810330 14088,6917.971,95.439,541.363,538.309,0.0
52535.0,STARLINK-3958,PAYLOAD,2022-08-10 14:00:01,15.08842277,0.0002428,53.2148,236.9578,36.7993,261.3875,-2.4793e-05,-6.83e-06,0.0,0 STARLINK-3958,1 52535U 22051C   22222.58334491 -.00000683  00000-0 -24793-4 0  9995,2 52535  53.2148 236.9578 0002428  36.7993 261.3875 15.08842277  1308,6917.873000000001,95.437,541.418,538.059,0.0
52535.0,STARLINK-3958,PAYLOAD,2022-08-10 17:07:18,15.08857893,0.000234,53.215,236.373,38.3296,246.7547,-0.0022936999999999,-0.00036627,0.0,0 STARLINK-3958,1 52535U 22051C   22222.71341435 -.00036627  00000-0 -22937-2 0  9999,2 52535  53.2150 236.3730 0002340  38.3296 246.7547 15.08857893 14208,6917.826,95.436,541.309,538.072,0.0
52535.0,STARLINK-3958,PAYLOAD,2022-08-10 22:00:00,15.08826855,0.0002210999999999,53.215,235.4597,40.8845,268.9078,0.0013583,0.00021388,0.0,0 STARLINK-3958,1 52535U 22051C   22222.91667824  .00021388  00000-0  13583-2 0  9997,2 52535  53.2150 235.4597 0002211  40.8845 268.9078 15.08826855  1300,6917.920999999999,95.438,541.315,538.256,0.0
